start=new Date('2022-10-16T00:00:00.000Z').valueOf();
sats=[{"INCLINATION":"52.9896","MEAN_ELEMENT_THEORY":"SGP4","GP_ID":"215164285","MEAN_MOTION":"15.80905346","BSTAR":"0.00631080000000","MEAN_MOTION_DDOT":"0.0000000000000","NORAD_CAT_ID":"44238","OBJECT_ID":"2019-029D","ELEMENT_SET_NO":"999","TLE_LINE2":"2 44238  52.9896 256.7791 0010957 111.1236 249.0362 15.80905346188459","REF_FRAME":"TEME","REV_AT_EPOCH":"18845","DECAY_DATE":null,"OBJECT_NAME":"STARLINK-24","TLE_LINE1":"1 44238U 19029D   22288.38107991  .01405697  00000-0  63108-2 0  9994","PERIAPSIS":"320.533","TIME_SYSTEM":"UTC","COUNTRY_CODE":"US","OBJECT_TYPE":"PAYLOAD","LAUNCH_DATE":"2019-05-24","CENTER_NAME":"EARTH","RCS_SIZE":"LARGE","SEMIMAJOR_AXIS":"6706.016","EPHEMERIS_TYPE":"0","MEAN_ANOMALY":"249.0362","RA_OF_ASC_NODE":"256.7791","FILE":"3613773","CLASSIFICATION_TYPE":"U","PERIOD":"91.087","ECCENTRICITY":"0.00109570","APOAPSIS":"335.229","EPOCH":"2022-10-15T09:08:45.304224","SITE":"AFETR","ARG_OF_PERICENTER":"111.1236","MEAN_MOTION_DOT":"0.01405697"},{"PERIAPSIS":"330.722","TIME_SYSTEM":"UTC","COUNTRY_CODE":"US","TLE_LINE2":"2 44252  52.9884 250.8238 0011275 120.3102  24.2150 15.77230180188531","REF_FRAME":"TEME","REV_AT_EPOCH":"18853","DECAY_DATE":null,"OBJECT_NAME":"STARLINK-71","TLE_LINE1":"1 44252U 19029T   22288.41683362  .01340859  00000-0  71375-2 0  9998","CENTER_NAME":"EARTH","RCS_SIZE":"LARGE","OBJECT_TYPE":"PAYLOAD","LAUNCH_DATE":"2019-05-24","GP_ID":"215162584","MEAN_MOTION":"15.77230180","INCLINATION":"52.9884","MEAN_ELEMENT_THEORY":"SGP4","OBJECT_ID":"2019-029T","ELEMENT_SET_NO":"999","BSTAR":"0.00713750000000","MEAN_MOTION_DDOT":"0.0000000000000","NORAD_CAT_ID":"44252","EPOCH":"2022-10-15T10:00:14.424768","ARG_OF_PERICENTER":"120.3102","MEAN_MOTION_DOT":"0.01340859","SITE":"AFETR","MEAN_ANOMALY":"24.2150","RA_OF_ASC_NODE":"250.8238","FILE":"3613667","SEMIMAJOR_AXIS":"6716.429","EPHEMERIS_TYPE":"0","PERIOD":"91.299","CLASSIFICATION_TYPE":"U","ECCENTRICITY":"0.00112750","APOAPSIS":"345.867"},{"APOAPSIS":"549.033","PERIOD":"95.592","CLASSIFICATION_TYPE":"U","ECCENTRICITY":"0.00026510","FILE":"3615679","MEAN_ANOMALY":"343.6149","RA_OF_ASC_NODE":"357.9128","SEMIMAJOR_AXIS":"6925.332","EPHEMERIS_TYPE":"0","ARG_OF_PERICENTER":"16.4926","MEAN_MOTION_DOT":"0.00003909","SITE":"AFETR","EPOCH":"2022-10-15T15:22:50.487168","ELEMENT_SET_NO":"999","OBJECT_ID":"2019-074A","BSTAR":"0.00028114000000","MEAN_MOTION_DDOT":"0.0000000000000","NORAD_CAT_ID":"44713","GP_ID":"215244478","MEAN_MOTION":"15.06405367","MEAN_ELEMENT_THEORY":"SGP4","INCLINATION":"53.0594","RCS_SIZE":"LARGE","CENTER_NAME":"EARTH","LAUNCH_DATE":"2019-11-11","OBJECT_TYPE":"PAYLOAD","COUNTRY_CODE":"US","TIME_SYSTEM":"UTC","PERIAPSIS":"545.361","OBJECT_NAME":"STARLINK-1007","TLE_LINE1":"1 44713U 19074A   22288.64086212  .00003909  00000-0  28114-3 0  9991","TLE_LINE2":"2 44713  53.0594 357.9128 0002651  16.4926 343.6149 15.06405367161694","REF_FRAME":"TEME","REV_AT_EPOCH":"16169","DECAY_DATE":null},{"REV_AT_EPOCH":"16170","DECAY_DATE":null,"TLE_LINE2":"2 44714  53.0547 357.7021 0001745  61.3328 298.7837 15.06423492161706","REF_FRAME":"TEME","TLE_LINE1":"1 44714U 19074B   22288.68604501  .00014802  00000-0  10099-2 0  9999","OBJECT_NAME":"STARLINK-1008","TIME_SYSTEM":"UTC","PERIAPSIS":"545.933","COUNTRY_CODE":"US","OBJECT_TYPE":"PAYLOAD","LAUNCH_DATE":"2019-11-11","RCS_SIZE":"LARGE","CENTER_NAME":"EARTH","INCLINATION":"53.0547","MEAN_ELEMENT_THEORY":"SGP4","MEAN_MOTION":"15.06423492","GP_ID":"215244729","NORAD_CAT_ID":"44714","MEAN_MOTION_DDOT":"0.0000000000000","BSTAR":"0.00100990000000","OBJECT_ID":"2019-074B","ELEMENT_SET_NO":"999","EPOCH":"2022-10-15T16:27:54.288864","SITE":"AFETR","MEAN_MOTION_DOT":"0.00014802","ARG_OF_PERICENTER":"61.3328","EPHEMERIS_TYPE":"0","SEMIMAJOR_AXIS":"6925.277","RA_OF_ASC_NODE":"357.7021","MEAN_ANOMALY":"298.7837","FILE":"3615679","PERIOD":"95.591","CLASSIFICATION_TYPE":"U","ECCENTRICITY":"0.00017450","APOAPSIS":"548.350"},{"SITE":"AFETR","ARG_OF_PERICENTER":"65.4147","MEAN_MOTION_DOT":"0.00008773","EPOCH":"2022-10-15T11:25:21.245376","ECCENTRICITY":"0.00017110","PERIOD":"95.591","CLASSIFICATION_TYPE":"U","APOAPSIS":"548.341","SEMIMAJOR_AXIS":"6925.291","EPHEMERIS_TYPE":"0","MEAN_ANOMALY":"294.7020","RA_OF_ASC_NODE":"358.6548","FILE":"3614916","OBJECT_TYPE":"PAYLOAD","LAUNCH_DATE":"2019-11-11","CENTER_NAME":"EARTH","RCS_SIZE":"LARGE","TLE_LINE2":"2 44715  53.0551 358.6548 0001711  65.4147 294.7020 15.06418729161665","REF_FRAME":"TEME","REV_AT_EPOCH":"16166","DECAY_DATE":null,"TLE_LINE1":"1 44715U 19074C   22288.47594034  .00008773  00000-0  60682-3 0  9990","OBJECT_NAME":"STARLINK-1009","TIME_SYSTEM":"UTC","PERIAPSIS":"545.971","COUNTRY_CODE":"US","BSTAR":"0.00060682000000","MEAN_MOTION_DDOT":"0.0000000000000","NORAD_CAT_ID":"44715","OBJECT_ID":"2019-074C","ELEMENT_SET_NO":"999","INCLINATION":"53.0551","MEAN_ELEMENT_THEORY":"SGP4","GP_ID":"215204279","MEAN_MOTION":"15.06418729"},{"GP_ID":"215243728","MEAN_MOTION":"15.06400347","MEAN_ELEMENT_THEORY":"SGP4","INCLINATION":"53.0547","ELEMENT_SET_NO":"999","OBJECT_ID":"2019-074D","BSTAR":"0.00011637000000","MEAN_MOTION_DDOT":"0.0000000000000","NORAD_CAT_ID":"44716","COUNTRY_CODE":"US","PERIAPSIS":"545.951","TIME_SYSTEM":"UTC","TLE_LINE1":"1 44716U 19074D   22288.56072567  .00001452  00000-0  11637-3 0  9996","OBJECT_NAME":"STARLINK-1010","REF_FRAME":"TEME","TLE_LINE2":"2 44716  53.0547 358.2715 0001821  48.0486 312.0658 15.06400347161666","REV_AT_EPOCH":"16166","DECAY_DATE":null,"CENTER_NAME":"EARTH","RCS_SIZE":"LARGE","LAUNCH_DATE":"2019-11-11","OBJECT_TYPE":"PAYLOAD","FILE":"3615679","MEAN_ANOMALY":"312.0658","RA_OF_ASC_NODE":"358.2715","SEMIMAJOR_AXIS":"6925.347","EPHEMERIS_TYPE":"0","APOAPSIS":"548.474","PERIOD":"95.592","CLASSIFICATION_TYPE":"U","ECCENTRICITY":"0.00018210","EPOCH":"2022-10-15T13:27:26.697888","ARG_OF_PERICENTER":"48.0486","MEAN_MOTION_DOT":"0.00001452","SITE":"AFETR"},{"SEMIMAJOR_AXIS":"6925.372","EPHEMERIS_TYPE":"0","FILE":"3615679","MEAN_ANOMALY":"312.8622","RA_OF_ASC_NODE":"17.6739","APOAPSIS":"548.458","CLASSIFICATION_TYPE":"U","PERIOD":"95.593","ECCENTRICITY":"0.00017640","EPOCH":"2022-10-15T16:35:52.620000","SITE":"AFETR","ARG_OF_PERICENTER":"47.2515","MEAN_MOTION_DOT":"0.00000544","MEAN_ELEMENT_THEORY":"SGP4","INCLINATION":"53.0569","GP_ID":"215243978","MEAN_MOTION":"15.06392408","MEAN_MOTION_DDOT":"0.0000000000000","BSTAR":"0.00005539900000","NORAD_CAT_ID":"44717","ELEMENT_SET_NO":"999","OBJECT_ID":"2019-074E","OBJECT_NAME":"STARLINK-1011","TLE_LINE1":"1 44717U 19074E   22288.69158125  .00000544  00000-0  55399-4 0  9991","TLE_LINE2":"2 44717  53.0569  17.6739 0001764  47.2515 312.8622 15.06392408161424","REF_FRAME":"TEME","DECAY_DATE":null,"REV_AT_EPOCH":"16142","COUNTRY_CODE":"US","TIME_SYSTEM":"UTC","PERIAPSIS":"546.015","LAUNCH_DATE":"2019-11-11","OBJECT_TYPE":"PAYLOAD","RCS_SIZE":"LARGE","CENTER_NAME":"EARTH"},{"OBJECT_TYPE":"PAYLOAD","LAUNCH_DATE":"2019-11-11","CENTER_NAME":"EARTH","RCS_SIZE":"LARGE","REF_FRAME":"TEME","TLE_LINE2":"2 44718  53.0554 358.1073 0001920  56.0298 304.0873 15.06413598161686","REV_AT_EPOCH":"16168","DECAY_DATE":null,"OBJECT_NAME":"STARLINK-1012","TLE_LINE1":"1 44718U 19074F   22288.59757031  .00002450  00000-0  18328-3 0  9990","TIME_SYSTEM":"UTC","PERIAPSIS":"545.842","COUNTRY_CODE":"US","MEAN_MOTION_DDOT":"0.0000000000000","BSTAR":"0.00018328000000","NORAD_CAT_ID":"44718","OBJECT_ID":"2019-074F","ELEMENT_SET_NO":"999","INCLINATION":"53.0554","MEAN_ELEMENT_THEORY":"SGP4","GP_ID":"215245229","MEAN_MOTION":"15.06413598","SITE":"AFETR","ARG_OF_PERICENTER":"56.0298","MEAN_MOTION_DOT":"0.00002450","EPOCH":"2022-10-15T14:20:30.074784","PERIOD":"95.591","ECCENTRICITY":"0.00019200","CLASSIFICATION_TYPE":"U","APOAPSIS":"548.502","SEMIMAJOR_AXIS":"6925.307","EPHEMERIS_TYPE":"0","MEAN_ANOMALY":"304.0873","RA_OF_ASC_NODE":"358.1073","FILE":"3615679"},{"OBJECT_TYPE":"PAYLOAD","LAUNCH_DATE":"2019-11-11","RCS_SIZE":"LARGE","CENTER_NAME":"EARTH","REV_AT_EPOCH":"16281","DECAY_DATE":null,"TLE_LINE2":"2 44719  53.0563 358.0754 0001813  56.8152 303.3010 15.06391980162811","REF_FRAME":"TEME","TLE_LINE1":"1 44719U 19074G   22288.60496062 -.00001127  00000-0 -56775-4 0  9998","OBJECT_NAME":"STARLINK-1013","TIME_SYSTEM":"UTC","PERIAPSIS":"545.983","COUNTRY_CODE":"US","NORAD_CAT_ID":"44719","MEAN_MOTION_DDOT":"0.0000000000000","BSTAR":"-0.00005677500000","OBJECT_ID":"2019-074G","ELEMENT_SET_NO":"999","INCLINATION":"53.0563","MEAN_ELEMENT_THEORY":"SGP4","MEAN_MOTION":"15.06391980","GP_ID":"215245480","SITE":"AFETR","MEAN_MOTION_DOT":"-0.00001127","ARG_OF_PERICENTER":"56.8152","EPOCH":"2022-10-15T14:31:08.597568","PERIOD":"95.593","ECCENTRICITY":"0.00018130","CLASSIFICATION_TYPE":"U","APOAPSIS":"548.494","EPHEMERIS_TYPE":"0","SEMIMAJOR_AXIS":"6925.373","RA_OF_ASC_NODE":"358.0754","MEAN_ANOMALY":"303.3010","FILE":"3615679"},{"MEAN_MOTION_DOT":"-0.00000991","ARG_OF_PERICENTER":"41.6689","SITE":"AFETR","EPOCH":"2022-10-15T21:18:29.163456","APOAPSIS":"548.934","PERIOD":"95.593","CLASSIFICATION_TYPE":"U","ECCENTRICITY":"0.00024380","FILE":"3615679","RA_OF_ASC_NODE":"356.7863","MEAN_ANOMALY":"318.4486","EPHEMERIS_TYPE":"0","SEMIMAJOR_AXIS":"6925.381","RCS_SIZE":"LARGE","CENTER_NAME":"EARTH","LAUNCH_DATE":"2019-11-11","OBJECT_TYPE":"PAYLOAD","COUNTRY_CODE":"US","TIME_SYSTEM":"UTC","PERIAPSIS":"545.558","TLE_LINE1":"1 44720U 19074H   22288.88783754 -.00000991  00000-0 -47594-4 0  9994","OBJECT_NAME":"STARLINK-1014","DECAY_DATE":null,"REV_AT_EPOCH":"16173","REF_FRAME":"TEME","TLE_LINE2":"2 44720  53.0572 356.7863 0002438  41.6689 318.4486 15.06389422161732","ELEMENT_SET_NO":"999","OBJECT_ID":"2019-074H","NORAD_CAT_ID":"44720","BSTAR":"-0.00004759400000","MEAN_MOTION_DDOT":"0.0000000000000","MEAN_MOTION":"15.06389422","GP_ID":"215244229","MEAN_ELEMENT_THEORY":"SGP4","INCLINATION":"53.0572"}];
